STARLINK-1776
1 26682C 20073N   21325.16742951  .00002526  00000-0  16929-3 0  3254
2 26682  53.0526 102.4781 0001400  78.6592  46.0979 15.06391319    18
